{"fetched_at":"2026-03-30T09:12:31Z","count":15922,"tles":[{"name":"COSMOS 2221","line1":"1 22236U 92080A   26087.56331441  .00002628  00000+0  22990-3 0  9996","line2":"2 22236  82.5006 260.9964 0015475 126.2240 234.0415 14.96277668783613","category":"Other"},{"name":"SL-8 R/B","line1":"1 21876U 92008B   26088.23231544  .00000009  00000+0 -70405-5 0  9991","line2":"2 21876  82.9231 253.2367 0035871  80.6122  91.1394 13.75969530712108","category":"Other"},{"name":"ARIANE 40 R/B","line1":"1 21610U 91050F   26088.16495676  .00000365  00000+0  12156-3 0  9994","line2":"2 21610  98.1971 139.6668 0003519  36.7160 323.4271 14.42907726821800","category":"Other"},{"name":"COSMOS 2219","line1":"1 22219U 92076A   26088.11543243 -.00000237  00000+0 -99464-4 0  9996","line2":"2 22219  71.0622 337.4638 0017901 178.4934 181.6246 14.14090705721126","category":"Other"},{"name":"SL-16 R/B","line1":"1 22566U 93016B   26088.21613491  .00000022  00000+0  35798-4 0  9990","line2":"2 22566  71.0077 174.1730 0012342 288.9182  71.0602 14.15305570704938","category":"Other"},{"name":"SL-16 R/B","line1":"1 22220U 92076B   26088.18247780 -.00000133  00000+0 -42482-4 0  9995","line2":"2 22220  70.9997 147.3158 0010707  59.9120   3.2767 14.16863910724592","category":"Other"},{"name":"INTERCOSMOS 25","line1":"1 21819U 91086A   26088.05624396  .00001832  00000+0  35245-3 0  9999","line2":"2 21819  82.6012 298.3001 1486507  75.2059 300.8528 12.12063902499031","category":"Other"},{"name":"ERS-1","line1":"1 21574U 91050A   26088.02130559  .00000335  00000+0  12161-3 0  9997","line2":"2 21574  98.7865 106.7409 0032696 143.4329 216.9099 14.39463664818518","category":"Other"},{"name":"SL-16 R/B","line1":"1 22285U 92093B   26088.10310325  .00000183  00000+0  11828-3 0  9995","line2":"2 22285  71.0230 323.5146 0006506 274.8622  85.1758 14.15454721715906","category":"Other"},{"name":"SL-8 R/B","line1":"1 21938U 92020B   26088.18493015  .00000034  00000+0  19337-4 0  9994","line2":"2 21938  82.9302 139.2867 0027781 241.8038 172.4048 13.75550514703817","category":"Other"},{"name":"COSMOS 2228","line1":"1 22286U 92094A   26088.16852512  .00003729  00000+0  31871-3 0  9991","line2":"2 22286  82.5185 218.6597 0016848 233.6370 126.3298 14.97290607778974","category":"Other"},{"name":"USA 81","line1":"1 21949U 92023A   26088.14906707  .00000185  00000+0  60974-4 0  9992","line2":"2 21949  85.0047 120.2111 0001766  68.0863 292.0517 14.32374104 97573","category":"Military"}]}